STARLINK-1308           
1 45419U 20019BM  26068.48906679  .00095173  00000+0  16251-2 0  9997
2 45419  53.0542 153.0711 0002295  20.5491 339.5610 15.50558102329644
FLOCK 4Q-12             
1 58275U 23174V   26068.74699973  .00081198  00000+0  13357-2 0  9997
2 58275  97.3876 157.9059 0005302 154.2743 205.8774 15.52068152130407
