[{"OBJECT_NAME":"STARLINK-1308","OBJECT_ID":"2020-019BM","EPOCH":"2026-03-09T11:44:15.370656","MEAN_MOTION":15.50558102,"ECCENTRICITY":0.00022951,"INCLINATION":53.0542,"RA_OF_ASC_NODE":153.0711,"ARG_OF_PERICENTER":20.5491,"MEAN_ANOMALY":339.561,"EPHEMERIS_TYPE":0,"CLASSIFICATION_TYPE":"U","NORAD_CAT_ID":45419,"ELEMENT_SET_NO":999,"REV_AT_EPOCH":32964,"BSTAR":0.0016250615,"MEAN_MOTION_DOT":0.00095173,"MEAN_MOTION_DDOT":0},{"OBJECT_NAME":"FLOCK 4Q-12","OBJECT_ID":"2023-174V","EPOCH":"2026-03-09T17:55:40.777536","MEAN_MOTION":15.52068152,"ECCENTRICITY":0.00053018,"INCLINATION":97.3876,"RA_OF_ASC_NODE":157.9059,"ARG_OF_PERICENTER":154.2743,"MEAN_ANOMALY":205.8774,"EPHEMERIS_TYPE":0,"CLASSIFICATION_TYPE":"U","NORAD_CAT_ID":58275,"ELEMENT_SET_NO":999,"REV_AT_EPOCH":13040,"BSTAR":0.0013357281,"MEAN_MOTION_DOT":0.00081198,"MEAN_MOTION_DDOT":0}]
